NORAD_CAT_ID,OBJECT_NAME,OBJECT_TYPE,EPOCH,MEAN_MOTION,ECCENTRICITY,INCLINATION,RA_OF_ASC_NODE,ARG_OF_PERICENTER,MEAN_ANOMALY,BSTAR,MEAN_MOTION_DOT,MEAN_MOTION_DDOT,TLE_LINE0,TLE_LINE1,TLE_LINE2,SEMIMAJOR_AXIS,PERIOD,APOGEE,PERIGEE,DECAYED
53169.0,STARLINK-4117,PAYLOAD,2023-06-01 00:06:11,15.08835976,0.0001124,53.2182,15.4983,103.4168,256.6949,8.8641e-05,1.123e-05,0.0,0 STARLINK-4117,1 53169U 22083AP  23152.00430156  .00001123  00000-0  88641-4 0  9999,2 53169  53.2182  15.4983 0001124 103.4168 256.6949 15.08835976 48676,6917.893,95.438,540.535,538.98,0.0
53169.0,STARLINK-4117,PAYLOAD,2023-06-01 20:46:12,15.08841986,0.0001208,53.2181,11.6334,97.576,262.5369,-7.5538e-05,-1.49e-05,0.0,0 STARLINK-4117,1 53169U 22083AP  23152.86542641 -.00001490  00000-0 -75538-4 0  9996,2 53169  53.2181  11.6334 0001208  97.5760 262.5369 15.08841986 49443,6917.874,95.437,540.575,538.904,0.0
53169.0,STARLINK-4117,PAYLOAD,2023-06-01 23:56:58,15.08844179,0.0001262,53.2173,11.0432,76.0059,284.1073,-4.1841e-05,-9.54e-06,0.0,0 STARLINK-4117,1 53169U 22083AP  23152.99790509 -.00000954  00000-0 -41841-4 0  9992,2 53169  53.2173  11.0432 0001262  76.0059 284.1073 15.08844179 48820,6917.868,95.437,540.606,538.86,0.0
53169.0,STARLINK-4117,PAYLOAD,2023-06-02 20:36:59,15.08839751,0.0001259,53.2182,7.1745,90.6793,269.4344,5.0983e-07,-2.8e-06,0.0,0 STARLINK-4117,1 53169U 22083AP  23153.85902639 -.00000280  00000-0  50983-6 0  9997,2 53169  53.2182   7.1745 0001259  90.6793 269.4344 15.08839751 48957,6917.881,95.438,540.617,538.875,0.0
53169.0,STARLINK-4117,PAYLOAD,2023-06-03 14:06:14,15.08837914,0.0001149,53.2175,3.9046,86.6945,273.4179,2.0612e-05,4e-07,0.0,0 STARLINK-4117,1 53169U 22083AP  23154.58766755  .00000040  00000-0  20612-4 0  9992,2 53169  53.2175   3.9046 0001149  86.6945 273.4179 15.08837914 49062,6917.887,95.438,540.547,538.957,0.0
53169.0,STARLINK-4117,PAYLOAD,2023-06-03 18:52:23,15.08840718,0.0001183,53.2178,3.0132,85.1208,274.992,8.5558e-06,-1.52e-06,0.0,0 STARLINK-4117,1 53169U 22083AP  23154.78638639 -.00000152  00000-0  85558-5 0  9999,2 53169  53.2178   3.0132 0001183  85.1208 274.9920 15.08840718 49736,6917.878,95.438,540.562,538.925,0.0
53169.0,STARLINK-4117,PAYLOAD,2023-06-03 20:27:46,15.088427,0.0001094,53.2179,2.7149,87.3691,272.7426,3.9411e-05,3.4e-06,0.0,0 STARLINK-4117,1 53169U 22083AP  23154.85262388  .00000340  00000-0  39411-4 0  9995,2 53169  53.2179   2.7149 0001094  87.3691 272.7426 15.08842700 49103,6917.872,95.437,540.494,538.98,0.0
53169.0,STARLINK-4117,PAYLOAD,2023-06-04 13:57:01,15.08834656,0.0001158,53.2177,359.4439,93.0187,267.0937,2.4797e-06,-2.48e-06,0.0,0 STARLINK-4117,1 53169U 22083AP  23155.58127027 -.00000248  00000-0  24797-5 0  9996,2 53169  53.2177 359.4439 0001158  93.0187 267.0937 15.08834656 49217,6917.897,95.438,540.563,538.961,0.0
53169.0,STARLINK-4117,PAYLOAD,2023-06-04 20:18:33,15.08841945,0.0001076,53.2168,358.2577,76.4041,283.7071,-9.1008e-07,-3.02e-06,0.0,0 STARLINK-4117,1 53169U 22083AP  23155.84622684 -.00000302  00000-0 -91008-6 0  9996,2 53169  53.2168 358.2577 0001076  76.4041 283.7071 15.08841945 49257,6917.874,95.437,540.484,538.995,0.0
53169.0,STARLINK-4117,PAYLOAD,2023-06-04 21:53:57,15.08843169,0.0001075,53.217,357.9598,77.3611,282.7501,7.1833e-06,-1.73e-06,0.0,0 STARLINK-4117,1 53169U 22083AP  23155.91246587 -.00000173  00000-0  71833-5 0  9996,2 53169  53.2170 357.9598 0001075  77.3611 282.7501 15.08843169 49900,6917.871,95.437,540.479,538.992,0.0
53169.0,STARLINK-4117,PAYLOAD,2023-06-05 09:01:39,15.08835508,0.0001116,53.2175,355.8772,80.8121,279.2997,-6.0434e-06,-3.84e-06,0.0,0 STARLINK-4117,1 53169U 22083AP  23156.37615137 -.00000384  00000-0 -60434-5 0  9998,2 53169  53.2175 355.8772 0001116  80.8121 279.2997 15.08835508 49972,6917.894,95.438,540.531,538.987,0.0
53169.0,STARLINK-4117,PAYLOAD,2023-06-05 20:09:20,15.08843004,0.0001098,53.2174,353.7957,78.9606,281.151,3.7096e-05,3.03e-06,0.0,0 STARLINK-4117,1 53169U 22083AP  23156.83982574  .00000303  00000-0  37096-4 0  9997,2 53169  53.2174 353.7957 0001098  78.9606 281.1510 15.08843004 49409,6917.871,95.437,540.496,538.977,0.0
53169.0,STARLINK-4117,PAYLOAD,2023-06-05 23:20:07,15.08844078,0.0001106,53.2174,353.2005,81.5943,278.5174,6.4615e-05,7.41e-06,0.0,0 STARLINK-4117,1 53169U 22083AP  23156.97230372  .00000741  00000-0  64615-4 0  9997,2 53169  53.2174 353.2005 0001106  81.5943 278.5174 15.08844078 50064,6917.868,95.437,540.498,538.968,0.0
53169.0,STARLINK-4117,PAYLOAD,2023-06-06 08:52:26,15.08834193,0.0001199,53.2179,351.4179,83.0364,277.0765,1.2689e-05,-8.6e-07,0.0,0 STARLINK-4117,1 53169U 22083AP  23157.36975269 -.00000086  00000-0  12689-4 0  9999,2 53169  53.2179 351.4179 0001199  83.0364 277.0765 15.08834193 50121,6917.898,95.438,540.593,538.934,0.0
53169.0,STARLINK-4117,PAYLOAD,2023-06-06 18:24:45,15.08837619,0.0001148,53.2174,349.6326,85.37,274.7423,4.8729e-06,-2.1e-06,0.0,0 STARLINK-4117,1 53169U 22083AP  23157.76719188 -.00000210  00000-0  48729-5 0  9993,2 53169  53.2174 349.6326 0001148  85.3700 274.7423 15.08837619 49547,6917.888,95.438,540.547,538.958,0.0
53169.0,STARLINK-4117,PAYLOAD,2023-06-07 07:07:50,15.08836521,0.0001088,53.2174,347.2544,85.9536,274.158,2.1995e-05,6.2e-07,0.0,0 STARLINK-4117,1 53169U 22083AP  23158.29711245  .00000062  00000-0  21995-4 0  9997,2 53169  53.2174 347.2544 0001088  85.9536 274.1580 15.08836521 49627,6917.891,95.438,540.509,539.003,0.0
53169.0,STARLINK-4117,PAYLOAD,2023-06-07 18:15:32,15.08837554,0.000105,53.2174,345.1729,91.0842,269.027,1.786e-05,-4e-08,0.0,0 STARLINK-4117,1 53169U 22083AP  23158.76079309 -.00000004  00000-0  17860-4 0  9990,2 53169  53.2174 345.1729 0001050  91.0842 269.0270 15.08837554 50332,6917.888,95.438,540.479,539.026,0.0
53169.0,STARLINK-4117,PAYLOAD,2023-06-07 19:50:55,15.08839579,0.0001064,53.2173,344.8756,90.6716,269.4398,3.4204e-05,2.57e-06,0.0,0 STARLINK-4117,1 53169U 22083AP  23158.82703146  .00000257  00000-0  34204-4 0  9990,2 53169  53.2173 344.8756 0001064  90.6716 269.4398 15.08839579 49700,6917.882,95.438,540.483,539.011,0.0
53169.0,STARLINK-4117,PAYLOAD,2023-06-08 11:44:46,15.08836856,0.0001096,53.2172,341.9019,93.1047,267.0071,9.4004e-05,1.208e-05,0.0,0 STARLINK-4117,1 53169U 22083AP  23159.48943132  .00001208  00000-0  94004-4 0  9995,2 53169  53.2172 341.9019 0001096  93.1047 267.0071 15.08836856 49807,6917.89,95.438,540.513,538.997,0.0
53169.0,STARLINK-4117,PAYLOAD,2023-06-08 19:41:41,15.0884619,0.0001121,53.2172,340.415,89.9956,270.1164,0.0001193,1.612e-05,0.0,0 STARLINK-4117,1 53169U 22083AP  23159.82062441  .00001612  00000-0  11930-3 0  9993,2 53169  53.2172 340.4150 0001121  89.9956 270.1164 15.08846190 50495,6917.861,95.437,540.502,538.951,0.0
53169.0,STARLINK-4117,PAYLOAD,2023-06-09 05:14:00,15.0884476,0.0001183,53.2173,338.6319,83.9217,276.1909,8.5778e-05,1.078e-05,0.0,0 STARLINK-4117,1 53169U 22083AP  23160.21806577  .00001078  00000-0  85778-4 0  9992,2 53169  53.2173 338.6319 0001183  83.9217 276.1909 15.08844760 49913,6917.866,95.437,540.549,538.912,0.0
53169.0,STARLINK-4117,PAYLOAD,2023-06-09 17:57:06,15.08837677,0.0001157,53.2178,336.2518,85.2071,274.9053,3.9089e-05,3.34e-06,0.0,0 STARLINK-4117,1 53169U 22083AP  23160.74799116  .00000334  00000-0  39089-4 0  9998,2 53169  53.2178 336.2518 0001157  85.2071 274.9053 15.08837677 50633,6917.887,95.438,540.553,538.952,0.0
53169.0,STARLINK-4117,PAYLOAD,2023-06-10 11:26:21,15.08842947,0.0001174,53.2172,332.9796,77.3772,282.7352,-7.8141e-05,-1.531e-05,0.0,0 STARLINK-4117,1 53169U 22083AP  23161.47663233 -.00001531  00000-0 -78141-4 0  9993,2 53169  53.2172 332.9796 0001174  77.3772 282.7352 15.08842947 50104,6917.871,95.437,540.549,538.924,0.0
53169.0,STARLINK-4117,PAYLOAD,2023-06-10 14:37:07,15.08842037,0.0001184,53.2173,332.3852,82.0361,278.0766,-6.2133e-05,-1.277e-05,0.0,0 STARLINK-4117,1 53169U 22083AP  23161.60911178 -.00001277  00000-0 -62133-4 0  9993,2 53169  53.2173 332.3852 0001184  82.0361 278.0766 15.08842037 50129,6917.874,95.437,540.558,538.92,0.0
53169.0,STARLINK-4117,PAYLOAD,2023-06-11 04:55:35,15.08845354,0.000108,53.2172,329.7097,87.8408,272.2708,-5.4698e-05,-1.158e-05,0.0,0 STARLINK-4117,1 53169U 22083AP  23162.20526762 -.00001158  00000-0 -54698-4 0  9996,2 53169  53.2172 329.7097 0001080  87.8408 272.2708 15.08845354 50856,6917.864,95.437,540.476,538.982,0.0
53169.0,STARLINK-4117,PAYLOAD,2023-06-11 11:17:08,15.08832986,0.0001038,53.2169,328.5196,97.7358,262.3752,9.4049e-06,-1.38e-06,0.0,0 STARLINK-4117,1 53169U 22083AP  23162.47023331 -.00000138  00000-0  94049-5 0  9990,2 53169  53.2169 328.5196 0001038  97.7358 262.3752 15.08832986 50256,6917.902,95.438,540.485,539.049,0.0
53169.0,STARLINK-4117,PAYLOAD,2023-06-11 17:38:40,15.08836112,0.000108,53.2166,327.331,91.5216,268.59,3.5026e-05,2.7e-06,0.0,0 STARLINK-4117,1 53169U 22083AP  23162.73519150  .00000270  00000-0  35026-4 0  9993,2 53169  53.2166 327.3310 0001080  91.5216 268.5900 15.08836112 50292,6917.892,95.438,540.504,539.01,0.0
53169.0,STARLINK-4117,PAYLOAD,2023-06-12 11:07:55,15.08835754,0.0001147,53.217,324.0592,100.9988,259.1133,2.4352e-05,1e-06,0.0,0 STARLINK-4117,1 53169U 22083AP  23163.46383338  .00000100  00000-0  24352-4 0  9993,2 53169  53.2170 324.0592 0001147 100.9988 259.1133 15.08835754 50406,6917.893,95.438,540.552,538.965,0.0
53169.0,STARLINK-4117,PAYLOAD,2023-06-12 17:29:27,15.08840527,9.61e-05,53.2179,322.872,83.2818,276.8284,1.5329e-05,-4.4e-07,0.0,0 STARLINK-4117,1 53169U 22083AP  23163.72879153 -.00000044  00000-0  15329-4 0  9999,2 53169  53.2179 322.8720 0000961  83.2818 276.8284 15.08840527 51084,6917.879,95.438,540.409,539.079,0.0
53169.0,STARLINK-4117,PAYLOAD,2023-06-13 09:23:19,15.08833064,0.0001076,53.2178,319.8984,94.1984,265.9132,2.2901e-05,7.7e-07,0.0,0 STARLINK-4117,1 53169U 22083AP  23164.39119767  .00000077  00000-0  22901-4 0  9990,2 53169  53.2178 319.8984 0001076  94.1984 265.9132 15.08833064 51184,6917.902,95.438,540.511,539.022,0.0
